SES-2                   
1 37809U 11049A   26088.16928699 -.00000215  00000+0  00000+0 0  9993
2 37809   0.0515  66.6376 0002858 297.1889 156.6830  1.00271842 53160
QUETZSAT 1              
1 37826U 11054A   26088.16209818 -.00000261  00000+0  00000+0 0  9994
2 37826   0.0403  46.4677 0002778 327.9667 153.4753  1.00272284 49077
SES-4                   
1 38087U 12007A   26088.18211370 -.00000187  00000+0  00000+0 0  9998
2 38087   0.0310  64.8567 0002226 310.0306 215.2638  1.00271311 51428
SES-5                   
1 38652U 12036A   26088.18748707  .00000014  00000+0  00000+0 0  9995
2 38652   0.0635 303.9606 0001969  58.7730 256.3156  1.00271352 43659
ASTRA 2F                
1 38778U 12051A   26088.12075346  .00000130  00000+0  00000+0 0  9996
2 38778   0.0560 251.9381 0001853  31.6721 334.5544  1.00272482 40336
SES-6                   
1 39172U 13026A   26088.17847368 -.00000281  00000+0  00000+0 0  9992
2 39172   0.0360 308.3924 0002107  78.6749 183.2472  1.00270446 46925
O3B FM5                 
1 39188U 13031A   26087.08443740 -.00000029  00000+0  00000+0 0  9990
2 39188   0.1013   7.8394 0003249 349.0661   3.0879  5.00116427232981
O3B FM4                 
1 39189U 13031B   26086.40408870 -.00000028  00000+0  00000+0 0  9990
2 39189   0.0535 345.5776 0005069  27.4764 346.9547  5.00115128232954
O3B FM2                 
1 39190U 13031C   26088.06885816 -.00000029  00000+0  00000+0 0  9996
2 39190   0.0526 338.9765 0002804  26.2407 354.7810  5.00115972233098
O3B PFM                 
1 39191U 13031D   26088.08299074 -.00000029  00000+0  00000+0 0  9994
2 39191   0.0691   4.8412 0005545  23.4012 331.7830  5.00115152232665
ASTRA 2E                
1 39285U 13056A   26088.12084014  .00000131  00000+0  00000+0 0  9999
2 39285   0.0750  33.2488 0002374 330.0553 255.2291  1.00269000 45614
SES-8                   
1 39460U 13071A   26088.06271804 -.00000289  00000+0  00000+0 0  9994
2 39460   0.0212 251.4054 0002022 138.6907 273.9407  1.00271616 43632
ASTRA 5B                
1 39617U 14011B   26088.04850463  .00000117  00000+0  00000+0 0  9994
2 39617   0.0873 299.9338 0003625  41.6912 245.7844  1.00269347 43865
O3B FM3                 
1 40079U 14038A   26086.35059271 -.00000028  00000+0  00000+0 0  9999
2 40079   0.0529 354.5796 0000866  77.5671 287.8583  5.00115572208951
O3B FM7                 
1 40080U 14038B   26087.89581251 -.00000029  00000+0  00000+0 0  9990
2 40080   0.0574 348.2877 0004269   7.0561   4.6475  5.00115549213865
O3B FM6                 
1 40081U 14038C   26088.12270237 -.00000029  00000+0  00000+0 0  9997
2 40081   0.0540 351.7915 0002640  13.8749 354.3320  5.00115661213819
O3B FM8                 
1 40082U 14038D   26087.97611576 -.00000029  00000+0  00000+0 0  9995
2 40082   0.0547 351.0075 0002664  20.1497 348.8441  5.00115967213938
